{"type":"FeatureCollection","bbox":[-8.845,52.155,-8.805,52.178],"toytown":{"version":1,"osm_timestamp":"2026-09-30T08:29:20Z","attribution":"© OpenStreetMap contributors","license":"ODbL-1.0"},"features":[{"type":"Feature","geometry":{"type":"Polygon","coordinates":[[[-8.82888,52.164811],[-8.828741,52.164778],[-8.828707,52.164832],[-8.828845,52.164865],[-8.82888,52.164811]]]},"properties":{"id":"way/1349056644","category":"house","height":6,"levels":2,"orientation":111.2,"front":291.2}},{"type":"Feature","geometry":{"type":"Polygon","coordinates":[[[-8.828845,52.164865],[-8.828707,52.164832],[-8.828672,52.164886],[-8.828811,52.164919],[-8.828845,52.164865]]]},"properties":{"id":"way/1349056645","category":"house","height":6,"levels":2,"orientation":111.2,"front":291.2}},{"type":"Feature","geometry":{"type":"Polygon","coordinates":[[[-8.828751,52.165009],[-8.828616,52.16497],[-8.828577,52.165023],[-8.828712,52.165061],[-8.828751,52.165009]]]},"properties":{"id":"way/1349056648","category":"house","height":6,"levels":2,"orientation":114.7,"front":294.7}},{"type":"Feature","geometry":{"type":"Polygon","coordinates":[[[-8.828791,52.164956],[-8.828656,52.164918],[-8.828616,52.16497],[-8.828751,52.165009],[-8.828791,52.164956]]]},"properties":{"id":"way/1349056649","category":"house","height":6,"levels":2,"orientation":114.7,"front":294.7}},{"type":"Feature","geometry":{"type":"Polygon","coordinates":[[[-8.828505,52.165102],[-8.828638,52.165142],[-8.82868,52.16509],[-8.828547,52.16505],[-8.828505,52.165102]]]},"properties":{"id":"way/1349056650","category":"house","height":6,"levels":2,"orientation":116.3,"front":296.3}},{"type":"Feature","geometry":{"type":"Polygon","coordinates":[[[-8.828463,52.165154],[-8.828596,52.165194],[-8.828638,52.165142],[-8.828505,52.165102],[-8.828463,52.165154]]]},"properties":{"id":"way/1349056651","category":"house","height":6,"levels":2,"orientation":116.3,"front":296.3}},{"type":"Feature","geometry":{"type":"Polygon","coordinates":[[[-8.828513,52.165276],[-8.828385,52.165229],[-8.828337,52.165279],[-8.828465,52.165326],[-8.828513,52.165276]]]},"properties":{"id":"way/1349056652","category":"house","height":6,"levels":2,"orientation":120.8,"front":300.8}},{"type":"Feature","geometry":{"type":"Polygon","coordinates":[[[-8.828562,52.165226],[-8.828434,52.165179],[-8.828385,52.165229],[-8.828513,52.165276],[-8.828562,52.165226]]]},"properties":{"id":"way/1349056653","category":"house","height":6,"levels":2,"orientation":120.8,"front":300.8}},{"type":"Feature","geometry":{"type":"Polygon","coordinates":[[[-8.828374,52.165422],[-8.828251,52.165371],[-8.828198,52.16542],[-8.828322,52.16547],[-8.828374,52.165422]]]},"properties":{"id":"way/1349056654","category":"house","height":6,"levels":2,"orientation":123.7,"front":303.7}},{"type":"Feature","geometry":{"type":"Polygon","coordinates":[[[-8.828427,52.165374],[-8.828303,52.165323],[-8.828251,52.165371],[-8.828374,52.165422],[-8.828427,52.165374]]]},"properties":{"id":"way/1349056655","category":"house","height":6,"levels":2,"orientation":123.7,"front":303.7}},{"type":"Feature","geometry":{"type":"Polygon","coordinates":[[[-8.828233,52.165552],[-8.828113,52.165498],[-8.828057,52.165545],[-8.828177,52.165599],[-8.828233,52.165552]]]},"properties":{"id":"way/1349056656","category":"house","height":6,"levels":2,"orientation":126.3,"front":306.3}},{"type":"Feature","geometry":{"type":"Polygon","coordinates":[[[-8.828289,52.165505],[-8.828169,52.165451],[-8.828113,52.165498],[-8.828233,52.165552],[-8.828289,52.165505]]]},"properties":{"id":"way/1349056657","category":"house","height":6,"levels":2,"orientation":126.3,"front":306.3}},{"type":"Feature","geometry":{"type":"Polygon","coordinates":[[[-8.828031,52.165668],[-8.827942,52.165595],[-8.827866,52.16563],[-8.827955,52.165703],[-8.828031,52.165668]]]},"properties":{"id":"way/1349056658","category":"house","height":6,"levels":2,"orientation":143.2,"front":323.2}},{"type":"Feature","geometry":{"type":"Polygon","coordinates":[[[-8.828107,52.165634],[-8.828018,52.165561],[-8.827942,52.165595],[-8.828031,52.165668],[-8.828107,52.165634]]]},"properties":{"id":"way/1349056659","category":"house","height":6,"levels":2,"orientation":143.2,"front":323.2}},{"type":"Feature","geometry":{"type":"Polygon","coordinates":[[[-8.829354,52.165015],[-8.829211,52.16499],[-8.829185,52.165045],[-8.829327,52.165071],[-8.829354,52.165015]]]},"properties":{"id":"way/1349056660","category":"house","height":6,"levels":2,"orientation":106.4,"front":106.4}},{"type":"Feature","geometry":{"type":"Polygon","coordinates":[[[-8.829327,52.165071],[-8.829185,52.165045],[-8.829158,52.165101],[-8.829301,52.165127],[-8.829327,52.165071]]]},"properties":{"id":"way/1349056661","category":"house","height":6,"levels":2,"orientation":106.4,"front":106.4}},{"type":"Feature","geometry":{"type":"Polygon","coordinates":[[[-8.829283,52.165166],[-8.829147,52.165128],[-8.829108,52.165181],[-8.829243,52.165219],[-8.829283,52.165166]]]},"properties":{"id":"way/1349056662","category":"house","height":6,"levels":2,"orientation":114.5,"front":114.5}},{"type":"Feature","geometry":{"type":"Polygon","coordinates":[[[-8.829243,52.165219],[-8.829108,52.165181],[-8.829069,52.165234],[-8.829204,52.165272],[-8.829243,52.165219]]]},"properties":{"id":"way/1349056663","category":"house","height":6,"levels":2,"orientation":114.5,"front":114.5}},{"type":"Feature","geometry":{"type":"Polygon","coordinates":[[[-8.829166,52.165311],[-8.82904,52.165263],[-8.82899,52.165312],[-8.829116,52.16536],[-8.829166,52.165311]]]},"properties":{"id":"way/1349056664","category":"house","height":6,"levels":2,"orientation":121.8,"front":121.8}},{"type":"Feature","geometry":{"type":"Polygon","coordinates":[[[-8.829116,52.16536],[-8.82899,52.165312],[-8.82894,52.165362],[-8.829066,52.16541],[-8.829116,52.16536]]]},"properties":{"id":"way/1349056665","category":"house","height":6,"levels":2,"orientation":121.9,"front":121.9}},{"type":"Feature","geometry":{"type":"Polygon","coordinates":[[[-8.828993,52.165478],[-8.828876,52.165422],[-8.828818,52.165468],[-8.828935,52.165524],[-8.828993,52.165478]]]},"properties":{"id":"way/1349056666","category":"house","height":6,"levels":2,"orientation":127.8,"front":127.8}},{"type":"Feature","geometry":{"type":"Polygon","coordinates":[[[-8.829051,52.165432],[-8.828934,52.165376],[-8.828876,52.165422],[-8.828993,52.165478],[-8.829051,52.165432]]]},"properties":{"id":"way/1349056667","category":"house","height":6,"levels":2,"orientation":127.7,"front":127.7}},{"type":"Feature","geometry":{"type":"Polygon","coordinates":[[[-8.828847,52.165601],[-8.82873,52.165544],[-8.828671,52.16559],[-8.828788,52.165647],[-8.828847,52.165601]]]},"properties":{"id":"way/1349056668","category":"house","height":6,"levels":2,"orientation":128.4,"front":128.4}},{"type":"Feature","geometry":{"type":"Polygon","coordinates":[[[-8.828905,52.165555],[-8.828789,52.165499],[-8.82873,52.165544],[-8.828847,52.165601],[-8.828905,52.165555]]]},"properties":{"id":"way/1349056669","category":"house","height":6,"levels":2,"orientation":128.3,"front":128.3}},{"type":"Feature","geometry":{"type":"Polygon","coordinates":[[[-8.82871,52.16572],[-8.828581,52.165674],[-8.828534,52.165725],[-8.828663,52.16577],[-8.82871,52.16572]]]},"properties":{"id":"way/1349056670","category":"house","height":6,"levels":2,"orientation":119.9,"front":119.9}},{"type":"Feature","geometry":{"type":"Polygon","coordinates":[[[-8.828758,52.16567],[-8.828629,52.165624],[-8.828581,52.165674],[-8.82871,52.16572],[-8.828758,52.16567]]]},"properties":{"id":"way/1349056671","category":"house","height":7,"levels":2,"orientation":119.9,"front":119.9}},{"type":"Feature","geometry":{"type":"Polygon","coordinates":[[[-8.828598,52.16585],[-8.828468,52.165806],[-8.828422,52.165857],[-8.828553,52.165901],[-8.828598,52.16585]]]},"properties":{"id":"way/1349056672","category":"house","height":6,"levels":2,"orientation":118.9,"front":118.9}},{"type":"Feature","geometry":{"type":"Polygon","coordinates":[[[-8.828644,52.165799],[-8.828514,52.165755],[-8.828468,52.165806],[-8.828598,52.16585],[-8.828644,52.165799]]]},"properties":{"id":"way/1349056673","category":"house","height":6,"levels":2,"orientation":118.9,"front":118.9}},{"type":"Feature","geometry":{"type":"Polygon","coordinates":[[[-8.828507,52.165978],[-8.828363,52.165955],[-8.828339,52.166011],[-8.828483,52.166035],[-8.828507,52.165978]]]},"properties":{"id":"way/1349056674","category":"house","height":6,"levels":2,"orientation":104.8,"front":104.8}},{"type":"Feature","geometry":{"type":"Polygon","coordinates":[[[-8.828531,52.165922],[-8.828388,52.165899],[-8.828363,52.165955],[-8.828507,52.165978],[-8.828531,52.165922]]]},"properties":{"id":"way/1349056675","category":"house","height":6,"levels":2,"orientation":104.8,"front":104.8}},{"type":"Feature","geometry":{"type":"Polygon","coordinates":[[[-8.828499,52.166074],[-8.828361,52.166049],[-8.828319,52.166135],[-8.828458,52.16616],[-8.828499,52.166074]]]},"properties":{"id":"way/1349056676","category":"house","height":6,"levels":2,"orientation":16.4,"front":106.4}},{"type":"Feature","geometry":{"type":"Polygon","coordinates":[[[-8.828556,52.166245],[-8.828465,52.166317],[-8.82854,52.166352],[-8.828631,52.16628],[-8.828556,52.166245]]]},"properties":{"id":"way/1349056677","category":"house","height":6,"levels":2,"orientation":38,"front":38}},{"type":"Feature","geometry":{"type":"Polygon","coordinates":[[[-8.828482,52.166209],[-8.82839,52.166281],[-8.828465,52.166317],[-8.828556,52.166245],[-8.828482,52.166209]]]},"properties":{"id":"way/1349056678","category":"house","height":6,"levels":2,"orientation":38,"front":38}},{"type":"Feature","geometry":{"type":"Polygon","coordinates":[[[-8.829042,52.165991],[-8.8289,52.165964],[-8.828872,52.16602],[-8.829014,52.166047],[-8.829042,52.165991]]]},"properties":{"id":"way/1349060771","category":"house","height":6,"levels":2,"orientation":107.2,"front":287.2}},{"type":"Feature","geometry":{"type":"Polygon","coordinates":[[[-8.829014,52.166047],[-8.828872,52.16602],[-8.828844,52.166075],[-8.828986,52.166102],[-8.829014,52.166047]]]},"properties":{"id":"way/1349060772","category":"house","height":6,"levels":2,"orientation":107.2,"front":287.2}},{"type":"Feature","geometry":{"type":"Polygon","coordinates":[[[-8.827473,52.165781],[-8.82739,52.165705],[-8.827311,52.165737],[-8.827394,52.165813],[-8.827473,52.165781]]]},"properties":{"id":"way/1349208768","category":"house","height":6,"levels":2,"orientation":146.1,"front":326.1}},{"type":"Feature","geometry":{"type":"Polygon","coordinates":[[[-8.827394,52.165813],[-8.827311,52.165737],[-8.827232,52.16577],[-8.827315,52.165846],[-8.827394,52.165813]]]},"properties":{"id":"way/1349208769","category":"house","height":6,"levels":2,"orientation":146.1,"front":326.1}},{"type":"Feature","geometry":{"type":"Polygon","coordinates":[[[-8.827181,52.165894],[-8.827098,52.165818],[-8.827019,52.16585],[-8.827102,52.165926],[-8.827181,52.165894]]]},"properties":{"id":"way/1349208770","category":"house","height":6,"levels":2,"orientation":146.1,"front":326.1}},{"type":"Feature","geometry":{"type":"Polygon","coordinates":[[[-8.82726,52.165861],[-8.827177,52.165785],[-8.827098,52.165818],[-8.827181,52.165894],[-8.82726,52.165861]]]},"properties":{"id":"way/1349208771","category":"house","height":6,"levels":2,"orientation":146.2,"front":326.2}},{"type":"Feature","geometry":{"type":"Polygon","coordinates":[[[-8.826932,52.165995],[-8.826849,52.165919],[-8.82677,52.165951],[-8.826853,52.166027],[-8.826932,52.165995]]]},"properties":{"id":"way/1349208772","category":"house","height":6,"levels":2,"orientation":146.1,"front":326.1}},{"type":"Feature","geometry":{"type":"Polygon","coordinates":[[[-8.82701,52.165962],[-8.826928,52.165887],[-8.826849,52.165919],[-8.826932,52.165995],[-8.82701,52.165962]]]},"properties":{"id":"way/1349208773","category":"house","height":6,"levels":2,"orientation":146.1,"front":326.1}},{"type":"Feature","geometry":{"type":"Polygon","coordinates":[[[-8.826613,52.166112],[-8.82653,52.166036],[-8.826451,52.166068],[-8.826534,52.166144],[-8.826613,52.166112]]]},"properties":{"id":"way/1349208774","category":"house","height":6,"levels":2,"orientation":146.1,"front":326.1}},{"type":"Feature","geometry":{"type":"Polygon","coordinates":[[[-8.826691,52.166079],[-8.826608,52.166003],[-8.82653,52.166036],[-8.826613,52.166112],[-8.826691,52.166079]]]},"properties":{"id":"way/1349208775","category":"house","height":6,"levels":2,"orientation":146.1,"front":326.1}},{"type":"Feature","geometry":{"type":"Polygon","coordinates":[[[-8.826406,52.166197],[-8.82632,52.166122],[-8.826243,52.166155],[-8.826328,52.16623],[-8.826406,52.166197]]]},"properties":{"id":"way/1349208776","category":"house","height":6,"levels":2,"orientation":144.9,"front":144.9}},{"type":"Feature","geometry":{"type":"Polygon","coordinates":[[[-8.826484,52.166163],[-8.826398,52.166088],[-8.82632,52.166122],[-8.826406,52.166197],[-8.826484,52.166163]]]},"properties":{"id":"way/1349208777","category":"house","height":6,"levels":2,"orientation":144.8,"front":144.8}},{"type":"Feature","geometry":{"type":"Polygon","coordinates":[[[-8.826228,52.166289],[-8.826131,52.166219],[-8.826059,52.166257],[-8.826155,52.166326],[-8.826228,52.166289]]]},"properties":{"id":"way/1349208778","category":"house","height":6,"levels":2,"orientation":139.7,"front":139.7}},{"type":"Feature","geometry":{"type":"Polygon","coordinates":[[[-8.8263,52.166251],[-8.826204,52.166181],[-8.826131,52.166219],[-8.826228,52.166289],[-8.8263,52.166251]]]},"properties":{"id":"way/1349208779","category":"house","height":6,"levels":2,"orientation":139.7,"front":139.7}},{"type":"Feature","geometry":{"type":"Polygon","coordinates":[[[-8.826048,52.166402],[-8.825938,52.166341],[-8.825874,52.166384],[-8.825984,52.166445],[-8.826048,52.166402]]]},"properties":{"id":"way/1349208780","category":"house","height":6,"levels":2,"orientation":132.5,"front":312.5}},{"type":"Feature","geometry":{"type":"Polygon","coordinates":[[[-8.826112,52.166359],[-8.826002,52.166298],[-8.825938,52.166341],[-8.826048,52.166402],[-8.826112,52.166359]]]},"properties":{"id":"way/1349208781","category":"house","height":6,"levels":2,"orientation":132.5,"front":312.5}},{"type":"Feature","geometry":{"type":"Polygon","coordinates":[[[-8.825916,52.166519],[-8.825786,52.166474],[-8.82574,52.166525],[-8.82587,52.16657],[-8.825916,52.166519]]]},"properties":{"id":"way/1349208782","category":"house","height":6,"levels":2,"orientation":118.9,"front":298.9}},{"type":"Feature","geometry":{"type":"Polygon","coordinates":[[[-8.825962,52.166468],[-8.825832,52.166424],[-8.825786,52.166474],[-8.825916,52.166519],[-8.825962,52.166468]]]},"properties":{"id":"way/1349208783","category":"house","height":6,"levels":2,"orientation":118.9,"front":298.9}},{"type":"Feature","geometry":{"type":"Polygon","coordinates":[[[-8.826752,52.165405],[-8.82669,52.16545],[-8.826803,52.165508],[-8.826865,52.165462],[-8.826752,52.165405]]]},"properties":{"id":"way/1349208784","category":"house","height":6,"levels":2,"orientation":129.7,"front":129.7}},{"type":"Feature","geometry":{"type":"Polygon","coordinates":[[[-8.82669,52.16545],[-8.826629,52.165496],[-8.826742,52.165553],[-8.826803,52.165508],[-8.82669,52.16545]]]},"properties":{"id":"way/1349208786","category":"house","height":6,"levels":2,"orientation":129.7,"front":129.7}},{"type":"Feature","geometry":{"type":"Polygon","coordinates":[[[-8.826629,52.165496],[-8.826567,52.165541],[-8.82668,52.165599],[-8.826742,52.165553],[-8.826629,52.165496]]]},"properties":{"id":"way/1349208787","category":"house","height":6,"levels":2,"orientation":129.8,"front":129.8}},{"type":"Feature","geometry":{"type":"Polygon","coordinates":[[[-8.826567,52.165541],[-8.826505,52.165587],[-8.826618,52.165644],[-8.82668,52.165599],[-8.826567,52.165541]]]},"properties":{"id":"way/1349208788","category":"house","height":6,"levels":2,"orientation":129.8,"front":39.8}},{"type":"Feature","geometry":{"type":"Polygon","coordinates":[[[-8.826395,52.165649],[-8.826317,52.165683],[-8.826402,52.165757],[-8.826481,52.165722],[-8.826395,52.165649]]]},"properties":{"id":"way/1349208789","category":"house","height":6,"levels":2,"orientation":144.3,"front":234.3}},{"type":"Feature","geometry":{"type":"Polygon","coordinates":[[[-8.826317,52.165683],[-8.826238,52.165718],[-8.826324,52.165791],[-8.826402,52.165757],[-8.826317,52.165683]]]},"properties":{"id":"way/1349208790","category":"house","height":6,"levels":2,"orientation":144.3,"front":144.3}},{"type":"Feature","geometry":{"type":"Polygon","coordinates":[[[-8.826238,52.165718],[-8.82616,52.165752],[-8.826245,52.165826],[-8.826324,52.165791],[-8.826238,52.165718]]]},"properties":{"id":"way/1349208791","category":"house","height":6,"levels":2,"orientation":144.4,"front":144.4}},{"type":"Feature","geometry":{"type":"Polygon","coordinates":[[[-8.82616,52.165752],[-8.826081,52.165787],[-8.826167,52.16586],[-8.826245,52.165826],[-8.82616,52.165752]]]},"properties":{"id":"way/1349208792","category":"house","height":6,"levels":2,"orientation":144.3,"front":144.3}},{"type":"Feature","geometry":{"type":"Polygon","coordinates":[[[-8.826081,52.165787],[-8.826002,52.165821],[-8.826088,52.165895],[-8.826167,52.16586],[-8.826081,52.165787]]]},"properties":{"id":"way/1349208793","category":"house","height":6,"levels":2,"orientation":144.5,"front":144.5}},{"type":"Feature","geometry":{"type":"Polygon","coordinates":[[[-8.826002,52.165821],[-8.825924,52.165856],[-8.826009,52.165929],[-8.826088,52.165895],[-8.826002,52.165821]]]},"properties":{"id":"way/1349208794","category":"house","height":6,"levels":2,"orientation":144.5,"front":144.5}},{"type":"Feature","geometry":{"type":"Polygon","coordinates":[[[-8.825924,52.165856],[-8.825845,52.16589],[-8.82593,52.165964],[-8.826009,52.165929],[-8.825924,52.165856]]]},"properties":{"id":"way/1349208795","category":"house","height":6,"levels":2,"orientation":144.5,"front":144.5}},{"type":"Feature","geometry":{"type":"Polygon","coordinates":[[[-8.825845,52.16589],[-8.825766,52.165925],[-8.825851,52.165998],[-8.82593,52.165964],[-8.825845,52.16589]]]},"properties":{"id":"way/1349208796","category":"house","height":6,"levels":2,"orientation":144.5,"front":144.5}},{"type":"Feature","geometry":{"type":"Polygon","coordinates":[[[-8.825351,52.166214],[-8.825299,52.166264],[-8.825424,52.166312],[-8.825476,52.166261],[-8.825351,52.166214]]]},"properties":{"id":"way/1349208797","category":"house","height":6,"levels":2,"orientation":121.8,"front":121.8}},{"type":"Feature","geometry":{"type":"Polygon","coordinates":[[[-8.825299,52.166264],[-8.825249,52.166315],[-8.825373,52.166362],[-8.825424,52.166312],[-8.825299,52.166264]]]},"properties":{"id":"way/1349208798","category":"house","height":6,"levels":2,"orientation":121.8,"front":121.8}},{"type":"Feature","geometry":{"type":"Polygon","coordinates":[[[-8.825249,52.166315],[-8.825198,52.166365],[-8.825322,52.166413],[-8.825373,52.166362],[-8.825249,52.166315]]]},"properties":{"id":"way/1349208799","category":"house","height":6,"levels":2,"orientation":121.8,"front":121.8}},{"type":"Feature","geometry":{"type":"Polygon","coordinates":[[[-8.825198,52.166365],[-8.825147,52.166416],[-8.825271,52.166463],[-8.825322,52.166413],[-8.825198,52.166365]]]},"properties":{"id":"way/1349208800","category":"house","height":6,"levels":2,"orientation":121.8,"front":121.8}},{"type":"Feature","geometry":{"type":"Polygon","coordinates":[[[-8.825676,52.165974],[-8.825612,52.166018],[-8.825722,52.166078],[-8.825786,52.166033],[-8.825676,52.165974]]]},"properties":{"id":"way/1349208801","category":"house","height":6,"levels":2,"orientation":131.4,"front":131.4}},{"type":"Feature","geometry":{"type":"Polygon","coordinates":[[[-8.825612,52.166018],[-8.825548,52.166063],[-8.825658,52.166122],[-8.825722,52.166078],[-8.825612,52.166018]]]},"properties":{"id":"way/1349208802","category":"house","height":6,"levels":2,"orientation":131.3,"front":131.3}},{"type":"Feature","geometry":{"type":"Polygon","coordinates":[[[-8.825548,52.166063],[-8.825484,52.166107],[-8.825595,52.166167],[-8.825658,52.166122],[-8.825548,52.166063]]]},"properties":{"id":"way/1349208803","category":"house","height":6,"levels":2,"orientation":131.3,"front":131.3}},{"type":"Feature","geometry":{"type":"Polygon","coordinates":[[[-8.825484,52.166107],[-8.82542,52.166152],[-8.825531,52.166211],[-8.825595,52.166167],[-8.825484,52.166107]]]},"properties":{"id":"way/1349208804","category":"house","height":6,"levels":2,"orientation":131.3,"front":131.3}},{"type":"Feature","geometry":{"type":"Polygon","coordinates":[[[-8.825851,52.165998],[-8.825766,52.165925],[-8.825676,52.165974],[-8.825786,52.166033],[-8.825851,52.165998]]]},"properties":{"id":"way/1349208805","category":"house","height":6,"levels":2,"orientation":138.5,"front":138.5}},{"type":"Feature","geometry":{"type":"Polygon","coordinates":[[[-8.825531,52.166211],[-8.82542,52.166152],[-8.825351,52.166214],[-8.825476,52.166261],[-8.825531,52.166211]]]},"properties":{"id":"way/1349208806","category":"house","height":6,"levels":2,"orientation":124.6,"front":124.6}},{"type":"Feature","geometry":{"type":"Polygon","coordinates":[[[-8.828197,52.166414],[-8.828187,52.166323],[-8.828092,52.166327],[-8.828103,52.166418],[-8.828197,52.166414]]]},"properties":{"id":"way/1349246540","category":"house","height":6,"levels":2,"orientation":176,"front":266}},{"type":"Feature","geometry":{"type":"Polygon","coordinates":[[[-8.828103,52.166418],[-8.828092,52.166327],[-8.827997,52.166331],[-8.828008,52.166422],[-8.828103,52.166418]]]},"properties":{"id":"way/1349246541","category":"house","height":6,"levels":2,"orientation":176,"front":266}},{"type":"Feature","geometry":{"type":"Polygon","coordinates":[[[-8.827951,52.166424],[-8.827948,52.166333],[-8.827853,52.166334],[-8.827856,52.166425],[-8.827951,52.166424]]]},"properties":{"id":"way/1349246542","category":"house","height":6,"levels":2,"orientation":178.8,"front":178.8}},{"type":"Feature","geometry":{"type":"Polygon","coordinates":[[[-8.827856,52.166425],[-8.827853,52.166334],[-8.827758,52.166335],[-8.827761,52.166426],[-8.827856,52.166425]]]},"properties":{"id":"way/1349246543","category":"house","height":6,"levels":2,"orientation":178.8,"front":178.8}},{"type":"Feature","geometry":{"type":"Polygon","coordinates":[[[-8.827723,52.166433],[-8.827723,52.166342],[-8.827628,52.166341],[-8.827628,52.166433],[-8.827723,52.166433]]]},"properties":{"id":"way/1349246544","category":"house","height":6,"levels":2,"orientation":0.2,"front":180.2}},{"type":"Feature","geometry":{"type":"Polygon","coordinates":[[[-8.827628,52.166433],[-8.827628,52.166341],[-8.827533,52.166341],[-8.827533,52.166432],[-8.827628,52.166433]]]},"properties":{"id":"way/1349246545","category":"house","height":6,"levels":2,"orientation":0.2,"front":180.2}},{"type":"Feature","geometry":{"type":"Polygon","coordinates":[[[-8.827471,52.166428],[-8.827479,52.166336],[-8.827384,52.166333],[-8.827376,52.166425],[-8.827471,52.166428]]]},"properties":{"id":"way/1349246546","category":"house","height":6,"levels":2,"orientation":3,"front":183}},{"type":"Feature","geometry":{"type":"Polygon","coordinates":[[[-8.827376,52.166425],[-8.827384,52.166333],[-8.827289,52.16633],[-8.827281,52.166421],[-8.827376,52.166425]]]},"properties":{"id":"way/1349246547","category":"house","height":6,"levels":2,"orientation":3,"front":183}},{"type":"Feature","geometry":{"type":"Polygon","coordinates":[[[-8.827237,52.166417],[-8.827249,52.166326],[-8.827155,52.166321],[-8.827142,52.166412],[-8.827237,52.166417]]]},"properties":{"id":"way/1349246548","category":"house","height":6,"levels":2,"orientation":4.8,"front":184.8}},{"type":"Feature","geometry":{"type":"Polygon","coordinates":[[[-8.827142,52.166412],[-8.827155,52.166321],[-8.82706,52.166316],[-8.827048,52.166407],[-8.827142,52.166412]]]},"properties":{"id":"way/1349246549","category":"house","height":6,"levels":2,"orientation":4.8,"front":184.8}},{"type":"Feature","geometry":{"type":"Polygon","coordinates":[[[-8.825662,52.167397],[-8.825709,52.167251],[-8.825629,52.167241],[-8.825639,52.167213],[-8.825534,52.1672],[-8.825504,52.167291],[-8.825403,52.167279],[-8.825385,52.167333],[-8.825489,52.167345],[-8.825479,52.167374],[-8.825662,52.167397]]]},"properties":{"id":"way/1349254921","category":"house","height":7,"levels":2,"orientation":101.3,"front":101.3}},{"type":"Feature","geometry":{"type":"Polygon","coordinates":[[[-8.824864,52.167167],[-8.824849,52.167226],[-8.824993,52.16724],[-8.825009,52.167182],[-8.824864,52.167167]]]},"properties":{"id":"way/1349254924","category":"house","height":6,"levels":2,"orientation":99.3,"front":9.3}},{"type":"Feature","geometry":{"type":"Polygon","coordinates":[[[-8.82488,52.167109],[-8.824864,52.167167],[-8.825009,52.167182],[-8.825025,52.167123],[-8.82488,52.167109]]]},"properties":{"id":"way/1349254925","category":"house","height":6,"levels":2,"orientation":99.3,"front":9.3}},{"type":"Feature","geometry":{"type":"Polygon","coordinates":[[[-8.824895,52.16705],[-8.82488,52.167109],[-8.825025,52.167123],[-8.82504,52.167065],[-8.824895,52.16705]]]},"properties":{"id":"way/1349254926","category":"house","height":6,"levels":2,"orientation":99.3,"front":99.3}},{"type":"Feature","geometry":{"type":"Polygon","coordinates":[[[-8.824911,52.166992],[-8.824895,52.16705],[-8.82504,52.167065],[-8.825056,52.167006],[-8.824911,52.166992]]]},"properties":{"id":"way/1349254927","category":"house","height":6,"levels":2,"orientation":99.3,"front":99.3}},{"type":"Feature","geometry":{"type":"Polygon","coordinates":[[[-8.824753,52.167514],[-8.824738,52.167573],[-8.824883,52.167588],[-8.824898,52.167529],[-8.824753,52.167514]]]},"properties":{"id":"way/1349254928","category":"house","height":6,"levels":2,"orientation":99.3,"front":99.3}},{"type":"Feature","geometry":{"type":"Polygon","coordinates":[[[-8.824769,52.167456],[-8.824753,52.167514],[-8.824898,52.167529],[-8.824914,52.167471],[-8.824769,52.167456]]]},"properties":{"id":"way/1349254929","category":"house","height":6,"levels":2,"orientation":99.3,"front":99.3}},{"type":"Feature","geometry":{"type":"Polygon","coordinates":[[[-8.824784,52.167398],[-8.824769,52.167456],[-8.824914,52.167471],[-8.824929,52.167412],[-8.824784,52.167398]]]},"properties":{"id":"way/1349254930","category":"house","height":6,"levels":2,"orientation":99.3,"front":189.3}},{"type":"Feature","geometry":{"type":"Polygon","coordinates":[[[-8.8248,52.167339],[-8.824784,52.167398],[-8.824929,52.167412],[-8.824945,52.167353],[-8.8248,52.167339]]]},"properties":{"id":"way/1349254931","category":"house","height":6,"levels":2,"orientation":99.3,"front":189.3}},{"type":"Feature","geometry":{"type":"Polygon","coordinates":[[[-8.822219,52.166282],[-8.822054,52.166279],[-8.822051,52.166346],[-8.822216,52.166349],[-8.822219,52.166282]]]},"properties":{"id":"way/1375688880","category":"generic","height":6,"levels":2,"orientation":91.5,"front":181.5}},{"type":"Feature","geometry":{"type":"Polygon","coordinates":[[[-8.82231,52.166392],[-8.822315,52.166283],[-8.822219,52.166282],[-8.822216,52.166349],[-8.822214,52.16639],[-8.82231,52.166392]]]},"properties":{"id":"way/1375688881","category":"generic","height":6,"levels":2,"orientation":1.5,"front":181.5}},{"type":"Feature","geometry":{"type":"Polygon","coordinates":[[[-8.823458,52.166935],[-8.823548,52.166941],[-8.82356,52.166869],[-8.82347,52.166863],[-8.823458,52.166935]]]},"properties":{"id":"way/1375688882","category":"generic","height":6,"levels":2,"orientation":6.2,"front":186.2}},{"type":"Feature","geometry":{"type":"Polygon","coordinates":[[[-8.822978,52.166422],[-8.822825,52.166409],[-8.822808,52.166486],[-8.82296,52.166499],[-8.822978,52.166422]]]},"properties":{"id":"way/1375688884","category":"house","height":7,"levels":2,"orientation":98.1,"front":188.1}},{"type":"Feature","geometry":{"type":"Polygon","coordinates":[[[-8.82313,52.166435],[-8.822978,52.166422],[-8.82296,52.166499],[-8.823112,52.166512],[-8.82313,52.166435]]]},"properties":{"id":"way/1375688885","category":"house","height":7,"levels":2,"orientation":98.1,"front":188.1}},{"type":"Feature","geometry":{"type":"Polygon","coordinates":[[[-8.823283,52.166449],[-8.82313,52.166435],[-8.823112,52.166512],[-8.823265,52.166525],[-8.823283,52.166449]]]},"properties":{"id":"way/1375688886","category":"house","height":7,"levels":2,"orientation":98.1,"front":188.1}},{"type":"Feature","geometry":{"type":"Polygon","coordinates":[[[-8.823678,52.166473],[-8.82353,52.166461],[-8.823512,52.16654],[-8.82366,52.166553],[-8.823678,52.166473]]]},"properties":{"id":"way/1375688887","category":"house","height":7,"levels":2,"orientation":98,"front":188}},{"type":"Feature","geometry":{"type":"Polygon","coordinates":[[[-8.823826,52.166486],[-8.823678,52.166473],[-8.82366,52.166553],[-8.823807,52.166565],[-8.823826,52.166486]]]},"properties":{"id":"way/1375688888","category":"house","height":7,"levels":2,"orientation":97.9,"front":187.9}},{"type":"Feature","geometry":{"type":"Polygon","coordinates":[[[-8.823973,52.166499],[-8.823826,52.166486],[-8.823807,52.166565],[-8.823955,52.166578],[-8.823973,52.166499]]]},"properties":{"id":"way/1375688889","category":"house","height":7,"levels":2,"orientation":98,"front":188}},{"type":"Feature","geometry":{"type":"Polygon","coordinates":[[[-8.814716,52.166833],[-8.814688,52.166785],[-8.814586,52.166808],[-8.814615,52.166856],[-8.814716,52.166833]]]},"properties":{"id":"way/1375689437","category":"barn","height":7,"levels":2,"orientation":69.7,"front":339.7}},{"type":"Feature","geometry":{"type":"Polygon","coordinates":[[[-8.814555,52.166559],[-8.814441,52.166584],[-8.814463,52.166623],[-8.814578,52.166598],[-8.814555,52.166559]]]},"properties":{"id":"way/1375689438","category":"barn","height":7,"levels":2,"orientation":70.4,"front":340.4}},{"type":"Feature","geometry":{"type":"Polygon","coordinates":[[[-8.814733,52.166734],[-8.814623,52.166545],[-8.814555,52.166559],[-8.814578,52.166598],[-8.814665,52.166749],[-8.814733,52.166734]]]},"properties":{"id":"way/1375689439","category":"barn","height":7,"levels":2,"orientation":160.4,"front":70.4}},{"type":"Feature","geometry":{"type":"Polygon","coordinates":[[[-8.814864,52.167133],[-8.814915,52.167119],[-8.814827,52.166993],[-8.814775,52.167007],[-8.814864,52.167133]]]},"properties":{"id":"way/1375689440","category":"barn","height":7,"levels":2,"orientation":156.7,"front":246.7}},{"type":"Feature","geometry":{"type":"Polygon","coordinates":[[[-8.815011,52.167061],[-8.815135,52.167028],[-8.815062,52.166926],[-8.814939,52.166959],[-8.815011,52.167061]]]},"properties":{"id":"way/1375689441","category":"barn","height":7,"levels":2,"orientation":156.5,"front":336.5}},{"type":"Feature","geometry":{"type":"Polygon","coordinates":[[[-8.814389,52.167232],[-8.814479,52.167209],[-8.814453,52.167172],[-8.814576,52.16714],[-8.81454,52.167087],[-8.814328,52.167142],[-8.814389,52.167232]]]},"properties":{"id":"way/1375689442","category":"generic","height":6,"levels":2,"orientation":67.3,"front":247.3}},{"type":"Feature","geometry":{"type":"Polygon","coordinates":[[[-8.814475,52.167014],[-8.814452,52.167015],[-8.814436,52.167025],[-8.814431,52.167038],[-8.81444,52.167051],[-8.81446,52.167058],[-8.814483,52.167056],[-8.8145,52.167047],[-8.814504,52.167033],[-8.814495,52.16702],[-8.814475,52.167014]]]},"properties":{"id":"way/1375689443","category":"generic","height":6,"levels":2,"orientation":83.4,"front":263.4}},{"type":"Feature","geometry":{"type":"Polygon","coordinates":[[[-8.817387,52.167335],[-8.817382,52.167323],[-8.817428,52.167315],[-8.817412,52.16728],[-8.817366,52.167288],[-8.81736,52.167273],[-8.817185,52.167302],[-8.817189,52.167311],[-8.817141,52.167318],[-8.817161,52.167363],[-8.817208,52.167355],[-8.817212,52.167364],[-8.817387,52.167335]]]},"properties":{"id":"way/1375689448","category":"church","height":12,"levels":4,"orientation":74.7,"front":164.7}},{"type":"Feature","geometry":{"type":"Polygon","coordinates":[[[-8.828044,52.171433],[-8.828046,52.171291],[-8.827711,52.171289],[-8.827709,52.171431],[-8.828044,52.171433]]]},"properties":{"id":"way/1375690621","category":"barn","height":7,"levels":2,"orientation":90.6,"front":180.6}},{"type":"Feature","geometry":{"type":"Polygon","coordinates":[[[-8.827925,52.170888],[-8.827993,52.170889],[-8.828138,52.170891],[-8.82814,52.170842],[-8.827927,52.170838],[-8.827925,52.170888]]]},"properties":{"id":"way/1375690622","category":"barn","height":7,"levels":2,"orientation":91.5,"front":91.5}},{"type":"Feature","geometry":{"type":"Polygon","coordinates":[[[-8.827991,52.170943],[-8.827993,52.170889],[-8.827925,52.170888],[-8.827746,52.170885],[-8.827744,52.170939],[-8.827991,52.170943]]]},"properties":{"id":"way/1375690623","category":"barn","height":7,"levels":2,"orientation":91.6,"front":91.6}},{"type":"Feature","geometry":{"type":"Polygon","coordinates":[[[-8.828,52.171052],[-8.828002,52.170985],[-8.827716,52.170982],[-8.827714,52.171049],[-8.828,52.171052]]]},"properties":{"id":"way/1375690624","category":"barn","height":7,"levels":2,"orientation":90.9,"front":90.9}},{"type":"Feature","geometry":{"type":"Polygon","coordinates":[[[-8.828591,52.170968],[-8.828681,52.170967],[-8.828677,52.170842],[-8.828587,52.170842],[-8.828591,52.170968]]]},"properties":{"id":"way/1375690625","category":"barn","height":7,"levels":2,"orientation":179,"front":89}},{"type":"Feature","geometry":{"type":"Polygon","coordinates":[[[-8.82853,52.170815],[-8.828607,52.170815],[-8.828608,52.170693],[-8.828531,52.170692],[-8.82853,52.170815]]]},"properties":{"id":"way/1375690626","category":"barn","height":7,"levels":2,"orientation":0.2,"front":90.2}},{"type":"Feature","geometry":{"type":"Polygon","coordinates":[[[-8.828286,52.170939],[-8.828497,52.170942],[-8.828502,52.170808],[-8.82829,52.170805],[-8.828286,52.170939]]]},"properties":{"id":"way/1375690627","category":"barn","height":7,"levels":2,"orientation":1.2,"front":91.2}},{"type":"Feature","geometry":{"type":"Polygon","coordinates":[[[-8.828428,52.170712],[-8.828343,52.170718],[-8.828352,52.170764],[-8.828437,52.170758],[-8.828428,52.170712]]]},"properties":{"id":"way/1375690628","category":"barn","height":7,"levels":2,"orientation":83.2,"front":83.2}},{"type":"Feature","geometry":{"type":"Polygon","coordinates":[[[-8.828308,52.170721],[-8.828343,52.170718],[-8.828428,52.170712],[-8.828464,52.170709],[-8.828446,52.170612],[-8.828289,52.170624],[-8.828308,52.170721]]]},"properties":{"id":"way/1375690629","category":"barn","height":7,"levels":2,"orientation":173.2,"front":83.2}},{"type":"Feature","geometry":{"type":"Polygon","coordinates":[[[-8.82818,52.170852],[-8.828269,52.170851],[-8.828268,52.170727],[-8.828178,52.170728],[-8.82818,52.170852]]]},"properties":{"id":"way/1375690630","category":"barn","height":7,"levels":2,"orientation":179.6,"front":89.6}},{"type":"Feature","geometry":{"type":"Polygon","coordinates":[[[-8.827769,52.17074],[-8.827984,52.170741],[-8.827985,52.170649],[-8.827771,52.170647],[-8.827769,52.17074]]]},"properties":{"id":"way/1375690631","category":"barn","height":7,"levels":2,"orientation":90.6,"front":90.6}},{"type":"Feature","geometry":{"type":"Polygon","coordinates":[[[-8.827875,52.170573],[-8.828034,52.170574],[-8.828035,52.1705],[-8.827966,52.170499],[-8.827967,52.170454],[-8.827877,52.170453],[-8.827875,52.170573]]]},"properties":{"id":"way/1375690632","category":"house","height":7,"levels":2,"orientation":0.6,"front":90.6}},{"type":"Feature","geometry":{"type":"Polygon","coordinates":[[[-8.826706,52.168882],[-8.826718,52.16878],[-8.82659,52.168774],[-8.826585,52.168813],[-8.826431,52.168806],[-8.826424,52.168869],[-8.826706,52.168882]]]},"properties":{"id":"way/1375690633","category":"barn","height":7,"levels":2,"orientation":94.2,"front":4.2}},{"type":"Feature","geometry":{"type":"Polygon","coordinates":[[[-8.82658,52.169101],[-8.826761,52.169111],[-8.826786,52.168943],[-8.826605,52.168933],[-8.82658,52.169101]]]},"properties":{"id":"way/1375690634","category":"barn","height":7,"levels":2,"orientation":5.2,"front":95.2}},{"type":"Feature","geometry":{"type":"Polygon","coordinates":[[[-8.824008,52.168451],[-8.824045,52.168358],[-8.823796,52.16832],[-8.823749,52.168437],[-8.823869,52.168455],[-8.823879,52.168431],[-8.824008,52.168451]]]},"properties":{"id":"way/1375690635","category":"house","height":7,"levels":2,"orientation":103.9,"front":283.9}},{"type":"Feature","geometry":{"type":"Polygon","coordinates":[[[-8.823301,52.168636],[-8.823401,52.168653],[-8.8235,52.168441],[-8.8234,52.168423],[-8.823301,52.168636]]]},"properties":{"id":"way/1375690636","category":"barn","height":7,"levels":2,"orientation":16,"front":286}},{"type":"Feature","geometry":{"type":"Polygon","coordinates":[[[-8.823745,52.168636],[-8.823702,52.16875],[-8.823838,52.168769],[-8.823882,52.168655],[-8.823745,52.168636]]]},"properties":{"id":"way/1375690637","category":"barn","height":7,"levels":2,"orientation":13.2,"front":283.2}},{"type":"Feature","geometry":{"type":"Polygon","coordinates":[[[-8.823434,52.168711],[-8.823702,52.16875],[-8.823745,52.168636],[-8.823478,52.168597],[-8.823434,52.168711]]]},"properties":{"id":"way/1375690638","category":"barn","height":7,"levels":2,"orientation":103.2,"front":283.2}},{"type":"Feature","geometry":{"type":"Polygon","coordinates":[[[-8.823641,52.169022],[-8.823659,52.16897],[-8.8236,52.168962],[-8.823636,52.168859],[-8.823695,52.168866],[-8.823718,52.168801],[-8.823337,52.168752],[-8.823261,52.168973],[-8.823641,52.169022]]]},"properties":{"id":"way/1375690639","category":"barn","height":7,"levels":2,"orientation":101.9,"front":281.9}},{"type":"Feature","geometry":{"type":"Polygon","coordinates":[[[-8.823848,52.169055],[-8.823959,52.169056],[-8.823963,52.168879],[-8.823852,52.168878],[-8.823848,52.169055]]]},"properties":{"id":"way/1375690640","category":"barn","height":7,"levels":2,"orientation":0.8,"front":270.8}},{"type":"Feature","geometry":{"type":"Polygon","coordinates":[[[-8.826045,52.168877],[-8.826173,52.168886],[-8.826183,52.168831],[-8.826231,52.168835],[-8.826243,52.168771],[-8.826068,52.168758],[-8.826045,52.168877]]]},"properties":{"id":"way/1375690642","category":"house","height":7,"levels":2,"orientation":6.7,"front":6.7}},{"type":"Feature","geometry":{"type":"Polygon","coordinates":[[[-8.824121,52.166511],[-8.823973,52.166499],[-8.823955,52.166578],[-8.824103,52.166591],[-8.824121,52.166511]]]},"properties":{"id":"way/331400668","category":"house","height":7,"levels":2,"orientation":97.9,"front":187.9}},{"type":"Feature","geometry":{"type":"Polygon","coordinates":[[[-8.823435,52.166462],[-8.823283,52.166449],[-8.823265,52.166525],[-8.823417,52.166539],[-8.823435,52.166462]]]},"properties":{"id":"way/331400669","category":"house","height":7,"levels":2,"orientation":98.1,"front":188.1}},{"type":"Feature","geometry":{"type":"Polygon","coordinates":[[[-8.822772,52.166335],[-8.822527,52.166313],[-8.822512,52.166376],[-8.82254,52.166378],[-8.822517,52.166475],[-8.822672,52.166488],[-8.822695,52.166389],[-8.822758,52.166395],[-8.822772,52.166335]]]},"properties":{"id":"way/331400670","category":"house","height":7,"levels":2,"orientation":8.3,"front":188.3}},{"type":"Feature","geometry":{"type":"Polygon","coordinates":[[[-8.819234,52.167183],[-8.819208,52.167138],[-8.818916,52.167199],[-8.818965,52.167286],[-8.819124,52.167252],[-8.819101,52.167211],[-8.819234,52.167183]]]},"properties":{"id":"way/331400671","category":"house","height":7,"levels":2,"orientation":71,"front":161,"name":"The Rectory"}},{"type":"Feature","geometry":{"type":"Polygon","coordinates":[[[-8.819385,52.167336],[-8.81936,52.167284],[-8.819059,52.16734],[-8.819067,52.167357],[-8.819016,52.167366],[-8.819034,52.167401],[-8.819385,52.167336]]]},"properties":{"id":"way/331400672","category":"house","height":7,"levels":2,"orientation":73,"front":163}},{"type":"Feature","geometry":{"type":"Polygon","coordinates":[[[-8.819499,52.167422],[-8.819465,52.167365],[-8.819128,52.167441],[-8.819169,52.167508],[-8.819398,52.167456],[-8.819392,52.167446],[-8.819499,52.167422]]]},"properties":{"id":"way/331400673","category":"house","height":7,"levels":2,"orientation":69.8,"front":159.8}},{"type":"Feature","geometry":{"type":"Polygon","coordinates":[[[-8.819566,52.167412],[-8.819781,52.167365],[-8.819712,52.167245],[-8.819496,52.167292],[-8.819566,52.167412]]]},"properties":{"id":"way/331400674","category":"barn","height":7,"levels":2,"orientation":70.5,"front":160.5}},{"type":"Feature","geometry":{"type":"Polygon","coordinates":[[[-8.824712,52.166725],[-8.824225,52.166637],[-8.824166,52.16676],[-8.824573,52.166834],[-8.824564,52.166852],[-8.824644,52.166866],[-8.824712,52.166725]]]},"properties":{"id":"way/331400675","category":"generic","height":6,"levels":2,"orientation":106.4,"front":286.4}},{"type":"Feature","geometry":{"type":"Polygon","coordinates":[[[-8.824824,52.166554],[-8.824623,52.166531],[-8.824593,52.166628],[-8.824794,52.166652],[-8.824824,52.166554]]]},"properties":{"id":"way/331400676","category":"pub","height":7,"levels":2,"orientation":100.9,"front":280.9,"name":"Geoff's Pub"}},{"type":"Feature","geometry":{"type":"Polygon","coordinates":[[[-8.808411,52.164713],[-8.808354,52.164651],[-8.80828,52.164677],[-8.808337,52.164739],[-8.808411,52.164713]]]},"properties":{"id":"way/340657211","category":"generic","height":6,"levels":2,"orientation":150.4,"front":330.4}},{"type":"Feature","geometry":{"type":"Polygon","coordinates":[[[-8.808528,52.16469],[-8.808495,52.164649],[-8.808439,52.164667],[-8.808473,52.164707],[-8.808528,52.16469]]]},"properties":{"id":"way/340657212","category":"generic","height":6,"levels":2,"orientation":153,"front":333}},{"type":"Feature","geometry":{"type":"Polygon","coordinates":[[[-8.814177,52.164396],[-8.81401,52.164399],[-8.814013,52.164448],[-8.814185,52.164443],[-8.814177,52.164396]]]},"properties":{"id":"way/340657213","category":"house","height":7,"levels":2,"orientation":88.1,"front":178.1}},{"type":"Feature","geometry":{"type":"Polygon","coordinates":[[[-8.813693,52.164561],[-8.813459,52.164541],[-8.813441,52.164618],[-8.813673,52.164638],[-8.813676,52.164626],[-8.813765,52.164633],[-8.813776,52.164583],[-8.81369,52.164575],[-8.813693,52.164561]]]},"properties":{"id":"way/340657214","category":"house","height":7,"levels":2,"orientation":97.9,"front":187.9}},{"type":"Feature","geometry":{"type":"Polygon","coordinates":[[[-8.813414,52.164752],[-8.813429,52.164672],[-8.813352,52.164666],[-8.813337,52.164746],[-8.813414,52.164752]]]},"properties":{"id":"way/340657215","category":"generic","height":6,"levels":2,"orientation":6.7,"front":186.7}},{"type":"Feature","geometry":{"type":"Polygon","coordinates":[[[-8.812576,52.165172],[-8.812359,52.165162],[-8.812347,52.165252],[-8.812492,52.165259],[-8.812486,52.165309],[-8.812558,52.165312],[-8.812576,52.165172]]]},"properties":{"id":"way/340657216","category":"house","height":7,"levels":2,"orientation":4.4,"front":184.4}},{"type":"Feature","geometry":{"type":"Polygon","coordinates":[[[-8.812715,52.165429],[-8.812535,52.165417],[-8.812505,52.16559],[-8.812685,52.165602],[-8.812715,52.165429]]]},"properties":{"id":"way/340657217","category":"barn","height":7,"levels":2,"orientation":6,"front":96}},{"type":"Feature","geometry":{"type":"Polygon","coordinates":[[[-8.811674,52.165354],[-8.811674,52.165244],[-8.811391,52.165243],[-8.81139,52.165354],[-8.811674,52.165354]]]},"properties":{"id":"way/340657218","category":"barn","height":7,"levels":2,"orientation":90.1,"front":180.1}},{"type":"Feature","geometry":{"type":"Polygon","coordinates":[[[-8.812351,52.165887],[-8.812353,52.165776],[-8.81207,52.165774],[-8.812068,52.165885],[-8.812351,52.165887]]]},"properties":{"id":"way/340657219","category":"barn","height":7,"levels":2,"orientation":90.7,"front":180.7}},{"type":"Feature","geometry":{"type":"Polygon","coordinates":[[[-8.812233,52.165456],[-8.812239,52.165397],[-8.811976,52.165387],[-8.81197,52.165446],[-8.812233,52.165456]]]},"properties":{"id":"way/340657220","category":"barn","height":7,"levels":2,"orientation":93.4,"front":183.4}},{"type":"Feature","geometry":{"type":"Polygon","coordinates":[[[-8.812087,52.165528],[-8.81181,52.165541],[-8.811798,52.165453],[-8.811545,52.165465],[-8.811556,52.16555],[-8.81137,52.16556],[-8.811397,52.165766],[-8.811957,52.165738],[-8.811946,52.165657],[-8.812103,52.165649],[-8.812087,52.165528]]]},"properties":{"id":"way/340657221","category":"barn","height":7,"levels":2,"orientation":85.5,"front":265.5}},{"type":"Feature","geometry":{"type":"Polygon","coordinates":[[[-8.810964,52.165641],[-8.811374,52.165589],[-8.811304,52.165383],[-8.811028,52.165418],[-8.811051,52.165487],[-8.810918,52.165504],[-8.810932,52.165543],[-8.810889,52.165549],[-8.810902,52.165589],[-8.810945,52.165584],[-8.810964,52.165641]]]},"properties":{"id":"way/340657222","category":"barn","height":7,"levels":2,"orientation":78.2,"front":258.2}},{"type":"Feature","geometry":{"type":"Polygon","coordinates":[[[-8.82889,52.166162],[-8.828823,52.166244],[-8.828968,52.166289],[-8.829035,52.166206],[-8.82889,52.166162]]]},"properties":{"id":"way/340657241","category":"house","height":6,"levels":2,"orientation":116.5,"front":296.5}},{"type":"Feature","geometry":{"type":"Polygon","coordinates":[[[-8.827663,52.165215],[-8.827521,52.165175],[-8.827432,52.165295],[-8.827354,52.165274],[-8.827294,52.165355],[-8.827378,52.165378],[-8.827361,52.165401],[-8.827487,52.165436],[-8.827504,52.165413],[-8.827578,52.165434],[-8.827644,52.165345],[-8.82758,52.165327],[-8.827663,52.165215]]]},"properties":{"id":"way/340657250","category":"church","height":12,"levels":4,"orientation":24.5,"front":24.5,"name":"Saint Mary's Catholic Church"}},{"type":"Feature","geometry":{"type":"Polygon","coordinates":[[[-8.827916,52.164857],[-8.827832,52.164969],[-8.827975,52.165009],[-8.828059,52.164898],[-8.827916,52.164857]]]},"properties":{"id":"way/340657251","category":"house","height":6,"levels":2,"orientation":24.8,"front":114.8}},{"type":"Feature","geometry":{"type":"Polygon","coordinates":[[[-8.828942,52.163121],[-8.82887,52.163176],[-8.828948,52.163213],[-8.82902,52.163152],[-8.828942,52.163121]]]},"properties":{"id":"way/340657252","category":"house","height":7,"levels":2,"orientation":37.2,"front":127.2}},{"type":"Feature","geometry":{"type":"Polygon","coordinates":[[[-8.829257,52.162867],[-8.829204,52.162924],[-8.829321,52.162965],[-8.829337,52.162949],[-8.829376,52.162909],[-8.829257,52.162867]]]},"properties":{"id":"way/340657253","category":"house","height":7,"levels":2,"orientation":119.7,"front":119.7}},{"type":"Feature","geometry":{"type":"Polygon","coordinates":[[[-8.829399,52.163021],[-8.829434,52.162985],[-8.829337,52.162949],[-8.829321,52.162965],[-8.829301,52.162985],[-8.829399,52.163021]]]},"properties":{"id":"way/340657254","category":"house","height":7,"levels":2,"orientation":121.1,"front":121.1}},{"type":"Feature","geometry":{"type":"Polygon","coordinates":[[[-8.825937,52.166861],[-8.825702,52.166805],[-8.825692,52.16682],[-8.825627,52.166804],[-8.825598,52.166807],[-8.825582,52.166832],[-8.8256,52.166849],[-8.82563,52.166856],[-8.825617,52.166877],[-8.825889,52.166943],[-8.825896,52.166932],[-8.825977,52.166952],[-8.826016,52.166947],[-8.826038,52.166921],[-8.826023,52.166895],[-8.825929,52.166873],[-8.825937,52.166861]]]},"properties":{"id":"way/340657257","category":"house","height":6,"levels":2,"orientation":111.7,"front":201.7}},{"type":"Feature","geometry":{"type":"Polygon","coordinates":[[[-8.826179,52.166918],[-8.826127,52.167009],[-8.826296,52.167045],[-8.826348,52.166954],[-8.826179,52.166918]]]},"properties":{"id":"way/340657258","category":"house","height":6,"levels":2,"orientation":109.2,"front":199.2}},{"type":"Feature","geometry":{"type":"Polygon","coordinates":[[[-8.826728,52.167068],[-8.826672,52.167158],[-8.826838,52.167197],[-8.826895,52.167107],[-8.826728,52.167068]]]},"properties":{"id":"way/340657259","category":"house","height":6,"levels":2,"orientation":111,"front":201}},{"type":"Feature","geometry":{"type":"Polygon","coordinates":[[[-8.826426,52.166991],[-8.826363,52.167079],[-8.826573,52.167136],[-8.826637,52.167048],[-8.826426,52.166991]]]},"properties":{"id":"way/340657260","category":"house","height":6,"levels":2,"orientation":113.7,"front":203.7}},{"type":"Feature","geometry":{"type":"Polygon","coordinates":[[[-8.82719,52.166678],[-8.826974,52.166664],[-8.826957,52.166763],[-8.827174,52.166777],[-8.82719,52.166678]]]},"properties":{"id":"way/340657261","category":"house","height":6,"levels":2,"orientation":96,"front":6}},{"type":"Feature","geometry":{"type":"Polygon","coordinates":[[[-8.827417,52.166551],[-8.82732,52.166544],[-8.82731,52.166594],[-8.827408,52.166601],[-8.827417,52.166551]]]},"properties":{"id":"way/340657262","category":"generic","height":6,"levels":2,"orientation":96.5,"front":186.5}},{"type":"Feature","geometry":{"type":"Polygon","coordinates":[[[-8.827534,52.166661],[-8.827469,52.166656],[-8.827458,52.166718],[-8.827269,52.166705],[-8.827255,52.166785],[-8.827393,52.166794],[-8.827391,52.166804],[-8.827506,52.166812],[-8.827534,52.166661]]]},"properties":{"id":"way/340657263","category":"bungalow","height":3,"levels":1,"orientation":96.3,"front":6.3}},{"type":"Feature","geometry":{"type":"Polygon","coordinates":[[[-8.827602,52.166713],[-8.82758,52.166805],[-8.827773,52.166822],[-8.827794,52.166734],[-8.827782,52.166733],[-8.827789,52.166701],[-8.827717,52.166695],[-8.82771,52.166722],[-8.827602,52.166713]]]},"properties":{"id":"way/340657265","category":"bungalow","height":3,"levels":1,"orientation":8.1,"front":8.1}},{"type":"Feature","geometry":{"type":"Polygon","coordinates":[[[-8.82795,52.166744],[-8.827931,52.166839],[-8.828108,52.166853],[-8.828127,52.166757],[-8.82795,52.166744]]]},"properties":{"id":"way/340657267","category":"house","height":6,"levels":2,"orientation":97,"front":277}},{"type":"Feature","geometry":{"type":"Polygon","coordinates":[[[-8.827981,52.166632],[-8.8279,52.166627],[-8.827888,52.166691],[-8.827969,52.166696],[-8.827981,52.166632]]]},"properties":{"id":"way/340657268","category":"generic","height":6,"levels":2,"orientation":6.6,"front":276.6}},{"type":"Feature","geometry":{"type":"Polygon","coordinates":[[[-8.82897,52.166781],[-8.828964,52.166878],[-8.829143,52.166881],[-8.829148,52.166785],[-8.82897,52.166781]]]},"properties":{"id":"way/340657269","category":"house","height":6,"levels":2,"orientation":91.8,"front":181.8}},{"type":"Feature","geometry":{"type":"Polygon","coordinates":[[[-8.829165,52.166785],[-8.82916,52.166881],[-8.829339,52.166885],[-8.829344,52.166788],[-8.829165,52.166785]]]},"properties":{"id":"way/340657270","category":"house","height":6,"levels":2,"orientation":91.8,"front":181.8}},{"type":"Feature","geometry":{"type":"Polygon","coordinates":[[[-8.828539,52.166744],[-8.828695,52.166755],[-8.828716,52.166646],[-8.82856,52.166635],[-8.828539,52.166744]]]},"properties":{"id":"way/340657271","category":"house","height":6,"levels":2,"orientation":6.7,"front":96.7}},{"type":"Feature","geometry":{"type":"Polygon","coordinates":[[[-8.82845,52.167094],[-8.828606,52.167105],[-8.828627,52.166996],[-8.828471,52.166985],[-8.82845,52.167094]]]},"properties":{"id":"way/340657272","category":"house","height":6,"levels":2,"orientation":6.7,"front":96.7}},{"type":"Feature","geometry":{"type":"Polygon","coordinates":[[[-8.826972,52.167121],[-8.826944,52.167216],[-8.82712,52.167236],[-8.827148,52.167141],[-8.826972,52.167121]]]},"properties":{"id":"way/340657273","category":"house","height":6,"levels":2,"orientation":100,"front":190}},{"type":"Feature","geometry":{"type":"Polygon","coordinates":[[[-8.827599,52.167146],[-8.827584,52.167242],[-8.827762,52.167252],[-8.827777,52.167156],[-8.827599,52.167146]]]},"properties":{"id":"way/340657274","category":"house","height":6,"levels":2,"orientation":95.2,"front":185.2}},{"type":"Feature","geometry":{"type":"Polygon","coordinates":[[[-8.8273,52.167131],[-8.827267,52.167239],[-8.827441,52.167259],[-8.82747,52.167164],[-8.827363,52.167152],[-8.827367,52.167139],[-8.8273,52.167131]]]},"properties":{"id":"way/340657275","category":"house","height":6,"levels":2,"orientation":10.7,"front":190.7}},{"type":"Feature","geometry":{"type":"Polygon","coordinates":[[[-8.828622,52.167659],[-8.828555,52.167634],[-8.828624,52.167541],[-8.828441,52.167505],[-8.828412,52.167567],[-8.828487,52.16759],[-8.828424,52.167661],[-8.828472,52.16768],[-8.828486,52.167666],[-8.828571,52.167703],[-8.828622,52.167659]]]},"properties":{"id":"way/340657277","category":"house","height":7,"levels":2,"orientation":17.7,"front":17.7}},{"type":"Feature","geometry":{"type":"Polygon","coordinates":[[[-8.824916,52.166279],[-8.824715,52.166255],[-8.824698,52.166309],[-8.824752,52.166315],[-8.824734,52.166374],[-8.824882,52.166391],[-8.824916,52.166279]]]},"properties":{"id":"way/341315211","category":"house","height":7,"levels":2,"orientation":100.8,"front":280.8}},{"type":"Feature","geometry":{"type":"Polygon","coordinates":[[[-8.830113,52.162158],[-8.829949,52.162274],[-8.830044,52.162324],[-8.83013,52.162263],[-8.830174,52.162287],[-8.830221,52.162254],[-8.830182,52.162233],[-8.830213,52.162211],[-8.830113,52.162158]]]},"properties":{"id":"way/341315212","category":"house","height":7,"levels":2,"orientation":40.8,"front":130.8}},{"type":"Feature","geometry":{"type":"Polygon","coordinates":[[[-8.830217,52.162415],[-8.830132,52.162372],[-8.830089,52.162404],[-8.830173,52.162447],[-8.830217,52.162415]]]},"properties":{"id":"way/341315214","category":"generic","height":6,"levels":2,"orientation":129.6,"front":129.6}},{"type":"Feature","geometry":{"type":"Polygon","coordinates":[[[-8.830338,52.161524],[-8.83023,52.161473],[-8.830182,52.161511],[-8.83029,52.161562],[-8.830338,52.161524]]]},"properties":{"id":"way/341315215","category":"house","height":7,"levels":2,"orientation":127.3,"front":307.3}},{"type":"Feature","geometry":{"type":"Polygon","coordinates":[[[-8.833805,52.161722],[-8.833876,52.161796],[-8.834078,52.161724],[-8.834008,52.16165],[-8.833805,52.161722]]]},"properties":{"id":"way/341315217","category":"house","height":7,"levels":2,"orientation":59.8,"front":149.8}},{"type":"Feature","geometry":{"type":"Polygon","coordinates":[[[-8.835246,52.160403],[-8.835542,52.160331],[-8.835492,52.160253],[-8.835195,52.160325],[-8.835246,52.160403]]]},"properties":{"id":"way/341315218","category":"generic","height":6,"levels":2,"orientation":68.3,"front":338.3}},{"type":"Feature","geometry":{"type":"Polygon","coordinates":[[[-8.843952,52.155792],[-8.843844,52.155931],[-8.843985,52.155972],[-8.844093,52.155833],[-8.843952,52.155792]]]},"properties":{"id":"way/341315220","category":"house","height":7,"levels":2,"orientation":25.5,"front":115.5}},{"type":"Feature","geometry":{"type":"Polygon","coordinates":[[[-8.843457,52.155959],[-8.843328,52.155933],[-8.843288,52.156008],[-8.843417,52.156034],[-8.843457,52.155959]]]},"properties":{"id":"way/341315222","category":"house","height":7,"levels":2,"orientation":108.2,"front":288.2}},{"type":"Feature","geometry":{"type":"Polygon","coordinates":[[[-8.843137,52.15617],[-8.843186,52.155985],[-8.843037,52.15597],[-8.843018,52.156042],[-8.843074,52.156048],[-8.843044,52.156161],[-8.843137,52.15617]]]},"properties":{"id":"way/341315223","category":"house","height":7,"levels":2,"orientation":9.2,"front":279.2}},{"type":"Feature","geometry":{"type":"Polygon","coordinates":[[[-8.844278,52.155579],[-8.844196,52.155539],[-8.84408,52.155627],[-8.844162,52.155668],[-8.844278,52.155579]]]},"properties":{"id":"way/341315224","category":"house","height":7,"levels":2,"orientation":38.7,"front":128.7}},{"type":"Feature","geometry":{"type":"Polygon","coordinates":[[[-8.843898,52.155235],[-8.843714,52.155178],[-8.843655,52.155249],[-8.843735,52.155274],[-8.843649,52.155378],[-8.843753,52.15541],[-8.843898,52.155235]]]},"properties":{"id":"way/341315225","category":"house","height":7,"levels":2,"orientation":26.9,"front":296.9}},{"type":"Feature","geometry":{"type":"Polygon","coordinates":[[[-8.843763,52.154979],[-8.843692,52.155065],[-8.843889,52.155127],[-8.84396,52.155041],[-8.843763,52.154979]]]},"properties":{"id":"way/341315226","category":"house","height":7,"levels":2,"orientation":117.1,"front":207.1}},{"type":"Feature","geometry":{"type":"Polygon","coordinates":[[[-8.804985,52.162884],[-8.805154,52.163017],[-8.805368,52.162915],[-8.805199,52.162782],[-8.804985,52.162884]]]},"properties":{"id":"way/918106758","category":"barn","height":7,"levels":2,"orientation":142.2,"front":232.2}},{"type":"Feature","geometry":{"type":"Polygon","coordinates":[[[-8.805289,52.162701],[-8.805444,52.162627],[-8.805378,52.162575],[-8.805223,52.162649],[-8.805289,52.162701]]]},"properties":{"id":"way/918106761","category":"barn","height":7,"levels":2,"orientation":52.1,"front":232.1}},{"type":"Feature","geometry":{"type":"Polygon","coordinates":[[[-8.805172,52.162565],[-8.805323,52.162502],[-8.805278,52.162461],[-8.805126,52.162523],[-8.805172,52.162565]]]},"properties":{"id":"way/918106762","category":"barn","height":7,"levels":2,"orientation":56,"front":236}},{"type":"Feature","geometry":{"type":"Polygon","coordinates":[[[-8.816505,52.167212],[-8.816395,52.167179],[-8.815918,52.167269],[-8.815805,52.167332],[-8.815776,52.167414],[-8.815894,52.167607],[-8.816068,52.167648],[-8.816814,52.167498],[-8.817605,52.167396],[-8.817487,52.167141],[-8.817307,52.167],[-8.816505,52.167212]]]},"properties":{"id":"way/331400666","category":"cemetery","kind":"area","name":"St Brigid's Graveyard"}},{"type":"Feature","geometry":{"type":"Polygon","coordinates":[[[-8.824712,52.166725],[-8.824225,52.166637],[-8.824166,52.16676],[-8.824573,52.166834],[-8.824564,52.166852],[-8.824644,52.166866],[-8.824712,52.166725]]]},"properties":{"id":"way/331400675","category":"sports_ground","kind":"area"}},{"type":"Feature","geometry":{"type":"Polygon","coordinates":[[[-8.805794,52.174222],[-8.806124,52.174141],[-8.806062,52.174046],[-8.805772,52.174116],[-8.805795,52.174152],[-8.805755,52.174162],[-8.805794,52.174222]]]},"properties":{"id":"way/850809920","category":"playground","kind":"area"}},{"type":"Feature","geometry":{"type":"Polygon","coordinates":[[[-8.828124,52.166147],[-8.828163,52.165925],[-8.828142,52.165896],[-8.828038,52.165924],[-8.827808,52.165948],[-8.827781,52.165903],[-8.82758,52.165924],[-8.827193,52.166041],[-8.82716,52.166073],[-8.827152,52.166127],[-8.827252,52.166168],[-8.828065,52.166168],[-8.828124,52.166147]]]},"properties":{"id":"way/1349210585","category":"grass","kind":"area"}},{"type":"Feature","geometry":{"type":"Polygon","coordinates":[[[-8.829262,52.166113],[-8.829172,52.166312],[-8.829134,52.166374],[-8.82906,52.166434],[-8.829182,52.166616],[-8.82926,52.166555],[-8.829334,52.166544],[-8.829412,52.166561],[-8.829467,52.166621],[-8.829495,52.166681],[-8.829727,52.166062],[-8.829368,52.166006],[-8.829329,52.166121],[-8.829262,52.166113]]]},"properties":{"id":"way/1349210586","category":"grass","kind":"area"}},{"type":"Feature","geometry":{"type":"Polygon","coordinates":[[[-8.829031,52.166593],[-8.828949,52.166489],[-8.828452,52.166451],[-8.828391,52.16649],[-8.828393,52.166597],[-8.828908,52.166631],[-8.829031,52.166593]]]},"properties":{"id":"way/1349210587","category":"grass","kind":"area"}},{"type":"Feature","geometry":{"type":"Polygon","coordinates":[[[-8.82685,52.166816],[-8.82699,52.1665],[-8.826979,52.16632],[-8.826933,52.166296],[-8.826805,52.166343],[-8.826713,52.166266],[-8.826539,52.166336],[-8.82658,52.166374],[-8.826389,52.166494],[-8.826323,52.166464],[-8.826151,52.166597],[-8.826114,52.166694],[-8.826314,52.166749],[-8.826676,52.16677],[-8.82685,52.166816]]]},"properties":{"id":"way/1349210590","category":"grass","kind":"area"}},{"type":"Feature","geometry":{"type":"Polygon","coordinates":[[[-8.828071,52.165786],[-8.8277,52.165583],[-8.827663,52.165621],[-8.827486,52.165571],[-8.827419,52.165648],[-8.827614,52.16584],[-8.827666,52.165828],[-8.827654,52.165796],[-8.827911,52.165785],[-8.82793,52.165813],[-8.828071,52.165786]]]},"properties":{"id":"way/1349210591","category":"grass","kind":"area"}},{"type":"Feature","geometry":{"type":"Polygon","coordinates":[[[-8.828357,52.167437],[-8.827798,52.167409],[-8.827334,52.167356],[-8.826089,52.167233],[-8.825938,52.167093],[-8.825781,52.167072],[-8.825664,52.167462],[-8.82625,52.167479],[-8.828271,52.167685],[-8.828357,52.167437]]]},"properties":{"id":"way/1349255722","category":"grass","kind":"area"}},{"type":"Feature","geometry":{"type":"Polygon","coordinates":[[[-8.821759,52.166144],[-8.822381,52.166207],[-8.822928,52.166258],[-8.824151,52.166358],[-8.82428,52.166337],[-8.824489,52.166248],[-8.82473,52.166192],[-8.825127,52.166228],[-8.825388,52.165999],[-8.825575,52.165856],[-8.824792,52.165493],[-8.824266,52.165335],[-8.821804,52.165164],[-8.821759,52.166144]]]},"properties":{"id":"way/1375688878","category":"sports_ground","kind":"area"}},{"type":"Feature","geometry":{"type":"Polygon","coordinates":[[[-8.824175,52.166239],[-8.824321,52.165385],[-8.822071,52.16524],[-8.821925,52.166095],[-8.824175,52.166239]]]},"properties":{"id":"way/1375688879","category":"pitch","kind":"area"}},{"type":"Feature","geometry":{"type":"Point","coordinates":[-8.815951,52.167588]},"properties":{"id":"scatter/way/331400666/0/0","category":"tree"}},{"type":"Feature","geometry":{"type":"Point","coordinates":[-8.81605,52.167635]},"properties":{"id":"scatter/way/331400666/0/1","category":"tree"}},{"type":"Feature","geometry":{"type":"Point","coordinates":[-8.815866,52.167306]},"properties":{"id":"scatter/way/331400666/0/2","category":"tree"}},{"type":"Feature","geometry":{"type":"Point","coordinates":[-8.817016,52.167223]},"properties":{"id":"scatter/way/331400666/0/3","category":"tree"}},{"type":"Feature","geometry":{"type":"Point","coordinates":[-8.816006,52.167289]},"properties":{"id":"scatter/way/331400666/0/4","category":"tree"}},{"type":"Feature","geometry":{"type":"Point","coordinates":[-8.817088,52.167438]},"properties":{"id":"scatter/way/331400666/0/5","category":"tree"}},{"type":"Feature","geometry":{"type":"Point","coordinates":[-8.81675,52.167284]},"properties":{"id":"scatter/way/331400666/0/6","category":"tree"}},{"type":"Feature","geometry":{"type":"Point","coordinates":[-8.816862,52.167195]},"properties":{"id":"scatter/way/331400666/0/7","category":"tree"}},{"type":"Feature","geometry":{"type":"Point","coordinates":[-8.827588,52.166011]},"properties":{"id":"scatter/way/1349210585/0/0","category":"tree"}},{"type":"Feature","geometry":{"type":"Point","coordinates":[-8.829084,52.166435]},"properties":{"id":"scatter/way/1349210586/0/0","category":"tree"}},{"type":"Feature","geometry":{"type":"Point","coordinates":[-8.829487,52.166272]},"properties":{"id":"scatter/way/1349210586/0/1","category":"tree"}},{"type":"Feature","geometry":{"type":"Point","coordinates":[-8.826395,52.166495]},"properties":{"id":"scatter/way/1349210590/0/0","category":"tree"}},{"type":"Feature","geometry":{"type":"Point","coordinates":[-8.826669,52.166733]},"properties":{"id":"scatter/way/1349210590/0/1","category":"tree"}},{"type":"Feature","geometry":{"type":"Point","coordinates":[-8.8268,52.16741]},"properties":{"id":"scatter/way/1349255722/0/0","category":"tree"}},{"type":"Feature","geometry":{"type":"Point","coordinates":[-8.828174,52.167436]},"properties":{"id":"scatter/way/1349255722/0/1","category":"tree"}},{"type":"Feature","geometry":{"type":"Point","coordinates":[-8.826481,52.167449]},"properties":{"id":"scatter/way/1349255722/0/2","category":"tree"}},{"type":"Feature","geometry":{"type":"Point","coordinates":[-8.826344,52.16731]},"properties":{"id":"scatter/way/1349255722/0/3","category":"tree"}},{"type":"Feature","geometry":{"type":"Point","coordinates":[-8.828293,52.167546]},"properties":{"id":"scatter/way/1349255722/0/4","category":"tree"}}]}